GLOBALSTAR M057         
1 25943U 99058A   25343.64872603 -.00000038  00000+0  49608-3 0  9998
2 25943  51.9964 210.2425 0003166  30.0808 330.0223 12.24831545188432
GLOBALSTAR M059         
1 25944U 99058B   25343.51872689 -.00000070  00000+0  20497-3 0  9990
2 25944  52.0022  92.8384 0000627 115.0192 328.0184 11.99988205595091
GLOBALSTAR M056         
1 25945U 99058C   25343.55049794 -.00000134  00000+0 -54342-3 0  9996
2 25945  51.9970  90.2173 0001563 149.5266 223.7000 12.04781418183763
GLOBALSTAR M031         
1 25946U 99058D   25343.67863583 -.00000131  00000+0 -41566-3 0  9991
2 25946  51.9979 331.6857 0001165 169.3948   3.4514 12.16044162185899
GLOBALSTAR M039         
1 25961U 99062A   25343.62753360 -.00000069  00000+0  19343-3 0  9996
2 25961  51.9847  94.3515 0002591  36.1092 323.9949 12.62338798202376
GLOBALSTAR M034         
1 25962U 99062B   25343.57173017 -.00000061  00000+0  31185-3 0  9996
2 25962  51.9884 275.4873 0014894  14.6112 155.9125 11.79453147159081
GLOBALSTAR M029         
1 25963U 99062C   25343.47623758 -.00000037  00000+0  60667-3 0  9998
2 25963  51.9829 340.8410 0002563  99.0098  68.5511 11.99904088190164
GLOBALSTAR M061         
1 25964U 99062D   25343.59762573 -.00000094  00000+0 -22886-3 0  9996
2 25964  51.9792 101.7809 0004979 294.0028  78.5235 11.76778167141839
